NORAD_CAT_ID,OBJECT_NAME,OBJECT_TYPE,EPOCH,MEAN_MOTION,ECCENTRICITY,INCLINATION,RA_OF_ASC_NODE,ARG_OF_PERICENTER,MEAN_ANOMALY,BSTAR,MEAN_MOTION_DOT,MEAN_MOTION_DDOT,TLE_LINE0,TLE_LINE1,TLE_LINE2,SEMIMAJOR_AXIS,PERIOD,APOGEE,PERIGEE,DECAYED
53894.0,STARLINK-5043,PAYLOAD,2023-01-08 00:03:36,15.08829939,0.0001283,53.2192,116.7216,95.5329,264.581,-2.4754e-05,-6.82e-06,0.0,0 STARLINK-5043,1 53894U 22119J   23008.00250670 -.00000682  00000-0 -24754-4 0  9991,2 53894  53.2192 116.7216 0001283  95.5329 264.5810 15.08829939 17068,6917.911,95.438,540.664,538.889,0.0
53894.0,STARLINK-5043,PAYLOAD,2023-01-09 09:26:41,15.08827581,9.15e-05,53.2174,110.474,80.6847,279.4248,0.00025089,3.706e-05,0.0,0 STARLINK-5043,1 53894U 22119J   23009.39354071  .00003706  00000-0  25089-3 0  9993,2 53894  53.2174 110.4740 0000915  80.6847 279.4248 15.08827581 16859,6917.9180000000015,95.438,540.4159999999998,539.15,0.0
53894.0,STARLINK-5043,PAYLOAD,2023-01-09 15:48:14,15.088391199999998,8.89e-05,53.2175,109.2848,84.4334,275.676,0.0001548,2.177e-05,0.0,0 STARLINK-5043,1 53894U 22119J   23009.65849649  .00002177  00000-0  15480-3 0  9997,2 53894  53.2175 109.2848 0000889  84.4334 275.6760 15.08839120 16891,6917.883000000002,95.438,540.363,539.133,0.0
53894.0,STARLINK-5043,PAYLOAD,2023-01-09 23:45:10,15.08815973,0.0001038,53.2162,107.7985,93.646,266.4651,0.00029857,4.464e-05,0.0,0 STARLINK-5043,1 53894U 22119J   23009.98970779  .00004464  00000-0  29857-3 0  9996,2 53894  53.2162 107.7985 0001038  93.6460 266.4651 15.08815973 16944,6917.9540000000015,95.439,540.5369999999998,539.101,0.0
53894.0,STARLINK-5043,PAYLOAD,2023-01-10 12:28:15,15.08827547,0.0001105,53.2148,105.4195,93.7604,266.3515,0.00019684,2.845e-05,0.0,0 STARLINK-5043,1 53894U 22119J   23010.51962428  .00002845  00000-0  19684-3 0  9997,2 53894  53.2148 105.4195 0001105  93.7604 266.3515 15.08827547 17020,6917.9180000000015,95.438,540.548,539.019,0.0
53894.0,STARLINK-5043,PAYLOAD,2023-01-11 12:19:01,15.0885393,0.0001335,53.2159,100.9594,94.8532,265.2612,0.00010382,1.365e-05,0.0,0 STARLINK-5043,1 53894U 22119J   23011.51320893  .00001365  00000-0  10382-3 0  9994,2 53894  53.2159 100.9594 0001335  94.8532 265.2612 15.08853930 17179,6917.838000000002,95.437,540.626,538.779,0.0
53894.0,STARLINK-5043,PAYLOAD,2023-01-12 08:59:03,15.0883385,0.0001149,53.217,97.0943,94.3372,265.7752,-6.9631e-06,-3.99e-06,0.0,0 STARLINK-5043,1 53894U 22119J   23012.37434415 -.00000399  00000-0 -69631-5 0  9996,2 53894  53.2170  97.0943 0001149  94.3372 265.7752 15.08833850 17300,6917.899,95.438,540.559,538.969,0.0
53894.0,STARLINK-5043,PAYLOAD,2023-01-13 12:00:36,15.08844425,0.0001006,53.2172,92.0394,92.9696,267.1411,3.4729e-05,2.65e-06,0.0,0 STARLINK-5043,1 53894U 22119J   23013.50041884  .00000265  00000-0  34729-4 0  9995,2 53894  53.2172  92.0394 0001006  92.9696 267.1411 15.08844425 17478,6917.866999999999,95.437,540.428,539.036,0.0
53894.0,STARLINK-5043,PAYLOAD,2023-01-13 21:32:55,15.0884164,9.13e-05,53.2169,90.2557,86.243,273.8666,-5.8765e-05,-1.223e-05,0.0,0 STARLINK-5043,1 53894U 22119J   23013.89786354 -.00001223  00000-0 -58765-4 0  9998,2 53894  53.2169  90.2557 0000913  86.2430 273.8666 15.08841640 17958,6917.875,95.437,540.372,539.109,0.0
53894.0,STARLINK-5043,PAYLOAD,2023-01-14 03:54:28,15.08833934,0.000106,53.2176,89.0667,84.5082,275.6031,2.488e-05,1.08e-06,0.0,0 STARLINK-5043,1 53894U 22119J   23014.16282672  .00000108  00000-0  24880-4 0  9993,2 53894  53.2176  89.0667 0001060  84.5082 275.6031 15.08833934 17573,6917.899,95.438,540.497,539.031,0.0
53894.0,STARLINK-5043,PAYLOAD,2023-01-14 11:51:23,15.08845425,9.61e-05,53.218,87.5782,92.7702,267.34,0.00011596,1.558e-05,0.0,0 STARLINK-5043,1 53894U 22119J   23014.49401634  .00001558  00000-0  11596-3 0  9999,2 53894  53.2180  87.5782 0000961  92.7702 267.3400 15.08845425 17620,6917.8640000000005,95.437,540.394,539.064,0.0
53894.0,STARLINK-5043,PAYLOAD,2023-01-15 03:45:16,15.08830008,0.0001322,53.217,84.6059,80.2833,279.8308,-0.00011138,-2.0600000000000003e-05,0.0,0 STARLINK-5043,1 53894U 22119J   23015.15643697 -.00002060  00000-0 -11138-3 0  9993,2 53894  53.2170  84.6059 0001322  80.2833 279.8308 15.08830008 17720,6917.911,95.438,540.69,538.861,0.0
53894.0,STARLINK-5043,PAYLOAD,2023-01-15 11:42:11,15.08835734,6.34e-05,53.2173,83.1185,59.6664,300.4391,-5.639600000000001e-05,-1.185e-05,0.0,0 STARLINK-5043,1 53894U 22119J   23015.48763231 -.00001185  00000-0 -56396-4 0  9999,2 53894  53.2173  83.1185 0000634  59.6664 300.4391 15.08835734 18190,6917.893,95.438,540.197,539.32,0.0
53894.0,STARLINK-5043,PAYLOAD,2023-01-15 21:14:29,15.08840852,9.61e-05,53.2162,81.3323,82.4886,277.6215,6.3297000000000006e-06,-1.87e-06,0.0,0 STARLINK-5043,1 53894U 22119J   23015.88506656 -.00000187  00000-0  63297-5 0  9998,2 53894  53.2162  81.3323 0000961  82.4886 277.6215 15.08840852 18259,6917.878000000001,95.438,540.408,539.078,0.0
53894.0,STARLINK-5043,PAYLOAD,2023-01-16 11:32:56,15.08866441,0.0001032,53.2186,78.6577,94.1682,265.9428,0.00015997,2.261e-05,0.0,0 STARLINK-5043,1 53894U 22119J   23016.48120402  .00002261  00000-0  15997-3 0  9992,2 53894  53.2186  78.6577 0001032  94.1682 265.9428 15.08866441 17920,6917.8,95.436,540.378,538.951,0.0
53894.0,STARLINK-5043,PAYLOAD,2023-01-16 21:05:16,15.08841182,0.0001109,53.2185,76.8739,102.5989,257.5127,-0.0001119,-2.068e-05,0.0,0 STARLINK-5043,1 53894U 22119J   23016.87866710 -.00002068  00000-0 -11190-3 0  9992,2 53894  53.2185  76.8739 0001109 102.5989 257.5127 15.08841182 18400,6917.877,95.437,540.509,538.975,0.0
53894.0,STARLINK-5043,PAYLOAD,2023-01-17 03:26:51,15.08798886,0.0001064,53.2183,75.6849,103.2336,256.8775,-0.00011124,-2.056e-05,0.0,0 STARLINK-5043,1 53894U 22119J   23017.14365588 -.00002056  00000-0 -11124-3 0  9994,2 53894  53.2183  75.6849 0001064 103.2336 256.8775 15.08798886 18022,6918.005999999999,95.44,540.607,539.135,0.0
53894.0,STARLINK-5043,PAYLOAD,2023-01-17 09:48:24,15.08803557,0.00011,53.2179,74.4953,100.0169,260.0948,-7.2554e-05,-1.441e-05,0.0,0 STARLINK-5043,1 53894U 22119J   23017.40861680 -.00001441  00000-0 -72554-4 0  9999,2 53894  53.2179  74.4953 0001100 100.0169 260.0948 15.08803557 18065,6917.991999999999,95.44,540.618,539.096,0.0
53894.0,STARLINK-5043,PAYLOAD,2023-01-18 03:17:37,15.08839362,0.0001695,53.2194,71.2238,108.5948,251.5228,-8.51e-05,-1.642e-05,0.0,0 STARLINK-5043,1 53894U 22119J   23018.13724049 -.00001642  00000-0 -85100-4 0  9991,2 53894  53.2194  71.2238 0001695 108.5948 251.5228 15.08839362 18171,6917.882,95.438,540.92,538.575,0.0
53894.0,STARLINK-5043,PAYLOAD,2023-01-18 09:39:08,15.08858467,0.0001069,53.2188,70.0338,106.3814,253.7295,9.3394e-05,1.2e-05,0.0,0 STARLINK-5043,1 53894U 22119J   23018.40218180  .00001200  00000-0  93394-4 0  9997,2 53894  53.2188  70.0338 0001069 106.3814 253.7295 15.08858467 18215,6917.8240000000005,95.436,540.428,538.9490000000001,0.0
53894.0,STARLINK-5043,PAYLOAD,2023-01-18 23:57:36,15.08832629,0.0001320999999999,53.2184,67.3584,121.1805,238.9317,0.00034434,5.195e-05,0.0,0 STARLINK-5043,1 53894U 22119J   23018.99834388  .00005195  00000-0  34434-3 0  9991,2 53894  53.2184  67.3584 0001321 121.1805 238.9317 15.08832629 18301,6917.903,95.438,540.682,538.854,0.0
53894.0,STARLINK-5043,PAYLOAD,2023-01-19 09:29:55,15.08837291,0.0001058,53.2188,65.5765,102.8452,257.2659,0.0002957,4.421e-05,0.0,0 STARLINK-5043,1 53894U 22119J   23019.39578486  .00004421  00000-0  29570-3 0  9996,2 53894  53.2188  65.5765 0001058 102.8452 257.2659 15.08837291 18782,6917.889,95.438,540.486,539.0219999999999,0.0
53894.0,STARLINK-5043,PAYLOAD,2023-01-20 02:59:11,15.08845853,0.0001281999999999,53.2185,62.3027,107.6299,252.4833,-0.00012758,-2.318e-05,0.0,0 STARLINK-5043,1 53894U 22119J   23020.12443480 -.00002318  00000-0 -12758-3 0  9999,2 53894  53.2185  62.3027 0001282 107.6299 252.4833 15.08845853 18476,6917.861999999999,95.437,540.614,538.841,0.0
53894.0,STARLINK-5043,PAYLOAD,2023-01-20 09:20:43,15.08843536,0.0001181,53.2186,61.1126,98.5224,261.5902,-0.0001414,-2.538e-05,0.0,0 STARLINK-5043,1 53894U 22119J   23020.38939610 -.00002538  00000-0 -14140-3 0  9993,2 53894  53.2186  61.1126 0001181  98.5224 261.5902 15.08843536 18933,6917.87,95.437,540.552,538.918,0.0
53894.0,STARLINK-5043,PAYLOAD,2023-01-21 09:11:30,15.08845226,0.0001177999999999,53.2182,56.6537,90.0665,270.0463,-4.8906e-06,-3.66e-06,0.0,0 STARLINK-5043,1 53894U 22119J   23021.38299015 -.00000366  00000-0 -48906-5 0  9998,2 53894  53.2182  56.6537 0001178  90.0665 270.0463 15.08845226 18661,6917.8640000000005,95.437,540.544,538.914,0.0
53894.0,STARLINK-5043,PAYLOAD,2023-01-22 09:02:18,15.08830987,0.0001127999999999,53.2191,52.1922,74.5984,285.5132,5.4194e-05,5.75e-06,0.0,0 STARLINK-5043,1 53894U 22119J   23022.37660179  .00000575  00000-0  54194-4 0  9996,2 53894  53.2191  52.1922 0001128  74.5984 285.5132 15.08830987 18815,6917.908,95.438,540.553,538.993,0.0
53894.0,STARLINK-5043,PAYLOAD,2023-01-23 10:28:28,15.08837088,0.0001284,53.2212,47.4387,100.3418,259.7719,5.8056e-05,6.36e-06,0.0,0 STARLINK-5043,1 53894U 22119J   23023.43644295  .00000636  00000-0  58056-4 0  9994,2 53894  53.2212  47.4387 0001284 100.3418 259.7719 15.08837088 18974,6917.889,95.438,540.643,538.866,0.0
53894.0,STARLINK-5043,PAYLOAD,2023-01-24 18:16:11,15.08838204,0.0001569,53.2201,41.4898,86.62100000000001,273.4962,3.293e-05,2.36e-06,0.0,0 STARLINK-5043,1 53894U 22119J   23024.76124575  .00000236  00000-0  32930-4 0  9994,2 53894  53.2201  41.4898 0001569  86.6210 273.4962 15.08838204 19172,6917.886,95.438,540.836,538.665,0.0
53894.0,STARLINK-5043,PAYLOAD,2023-01-25 08:34:40,15.08838548,0.0001363,53.2199,38.8139,87.9188,272.196,-1.7479e-05,-5.66e-06,0.0,0 STARLINK-5043,1 53894U 22119J   23025.35740776 -.00000566  00000-0 -17479-4 0  9996,2 53894  53.2199  38.8139 0001363  87.9188 272.1960 15.08838548 19687,6917.885,95.438,540.693,538.807,0.0
